{
    "links": {
        "self": "http://www.neowsapp.com/rest/v1/neo/3330160?api_key=iIulBulltgU6a56xZRHN4H3l9WmuAYTsLGpBGhQ2"
    },
    "id": "3330160",
    "neo_reference_id": "3330160",
    "name": "(2006 HA6)",
    "designation": "2006 HA6",
    "nasa_jpl_url": "http://ssd.jpl.nasa.gov/sbdb.cgi?sstr=3330160",
    "absolute_magnitude_h": 20.2,
    "estimated_diameter": {
        "kilometers": {
            "estimated_diameter_min": 0.2424124811,
            "estimated_diameter_max": 0.5420507863
        },
        "meters": {
            "estimated_diameter_min": 242.4124811008,
            "estimated_diameter_max": 542.0507863358
        },
        "miles": {
            "estimated_diameter_min": 0.1506280858,
            "estimated_diameter_max": 0.3368146392
        },
        "feet": {
            "estimated_diameter_min": 795.3165644948,
            "estimated_diameter_max": 1778.3819018419
        }
    },
    "is_potentially_hazardous_asteroid": false,
    "close_approach_data": [
        {
            "close_approach_date": "2006-03-28",
            "close_approach_date_full": "2006-Mar-28 09:28",
            "epoch_date_close_approach": 1143538080000,
            "relative_velocity": {
                "kilometers_per_second": "13.2705905067",
                "kilometers_per_hour": "47774.1258240577",
                "miles_per_hour": "29684.9839043985"
            },
            "miss_distance": {
                "astronomical": "0.2426234123",
                "lunar": "94.3805073847",
                "kilometers": "36295945.692211801",
                "miles": "22553254.8448168138"
            },
            "orbiting_body": "Earth"
        }
    ],
    "orbital_data": {
        "orbit_id": "8",
        "orbit_determination_date": "2017-04-06 09:08:47",
        "first_observation_date": "2006-04-20",
        "last_observation_date": "2006-05-04",
        "data_arc_in_days": 14,
        "observations_used": 33,
        "orbit_uncertainty": "9",
        "minimum_orbit_intersection": ".216275",
        "jupiter_tisserand_invariant": "2.718",
        "epoch_osculation": "2453849.5",
        "eccentricity": ".6361672046951383",
        "semi_major_axis": "3.273605445133005",
        "inclination": "22.75119295432676",
        "ascending_node_longitude": "17.02742860136479",
        "orbital_period": "2163.405495098664",
        "perihelion_distance": "1.191045019827957",
        "perihelion_argument": "157.1034155582047",
        "aphelion_distance": "5.356165870438052",
        "perihelion_time": "2453803.694553514164",
        "mean_anomaly": "7.622223745044578",
        "mean_motion": ".1664043106184224",
        "equinox": "J2000",
        "orbit_class": {
            "orbit_class_type": "AMO",
            "orbit_class_description": "Near-Earth asteroid orbits similar to that of 1221 Amor",
            "orbit_class_range": "1.017 AU < q (perihelion) < 1.3 AU"
        }
    },
    "is_sentry_object": false
}